[{"OBJECT_ID":"1979-095CL","OBJECT_NAME":"METEOR 2-5 DEB","NORAD_CAT_ID":"40213","OBJECT_TYPE":"DEBRIS","PERIOD":"101.115","INCLINATION":"81.2098","ECCENTRICITY":"0.00096250","MEAN_MOTION":"14.24123343","TLE_LINE1":"1 40213U 79095CL  21270.10488691  .00001754  00000-0  75672-3 0  9996","TLE_LINE2":"2 40213  81.2098  45.3085 0009625 275.4091 209.9768 14.24123343363814"},{"OBJECT_ID":"1979-095CM","OBJECT_NAME":"METEOR 2-5 DEB","NORAD_CAT_ID":"40214","OBJECT_TYPE":"DEBRIS","PERIOD":"101.691","INCLINATION":"81.2112","ECCENTRICITY":"0.00124600","MEAN_MOTION":"14.16054223","TLE_LINE1":"1 40214U 79095CM  21271.17740048  .00000422  00000-0  20720-3 0  9997","TLE_LINE2":"2 40214  81.2112  77.1934 0012460 340.1153  19.9533 14.16054223361940"},{"OBJECT_ID":"1979-095CN","OBJECT_NAME":"METEOR 2-5 DEB","NORAD_CAT_ID":"40215","OBJECT_TYPE":"DEBRIS","PERIOD":"101.756","INCLINATION":"81.1987","ECCENTRICITY":"0.00020030","MEAN_MOTION":"14.15152615","TLE_LINE1":"1 40215U 79095CN  21271.44019817  .00001481  00000-0  75725-3 0  9992","TLE_LINE2":"2 40215  81.1987  78.0324 0002003 346.3774  13.7345 14.15152615404722"},{"OBJECT_ID":"1986-088E","OBJECT_NAME":"SCOUT G-1 DEB","NORAD_CAT_ID":"40216","OBJECT_TYPE":"DEBRIS","PERIOD":"104.125","INCLINATION":"89.5522","ECCENTRICITY":"0.00631760","MEAN_MOTION":"13.82949810","TLE_LINE1":"1 40216U 86088E   21268.63765765  .00000981  00000-0  87481-3 0  9996","TLE_LINE2":"2 40216  89.5522 238.4900 0063176  32.1547 328.3451 13.82949810385116"},{"OBJECT_ID":"1988-056C","OBJECT_NAME":"OKEAN 1 DEB","NORAD_CAT_ID":"40217","OBJECT_TYPE":"DEBRIS","PERIOD":"94.925","INCLINATION":"82.4937","ECCENTRICITY":"0.00099880","MEAN_MOTION":"15.16980688","TLE_LINE1":"1 40217U 88056C   21272.38734654  .00003587  00000-0  17996-3 0  9993","TLE_LINE2":"2 40217  82.4937  35.9447 0009988 296.6774  63.3436 15.16980688417881"},{"OBJECT_ID":"1993-036BUX","OBJECT_NAME":"COSMOS 2251 DEB","NORAD_CAT_ID":"40218","OBJECT_TYPE":"DEBRIS","PERIOD":"100.232","INCLINATION":"74.0338","ECCENTRICITY":"0.00188880","MEAN_MOTION":"14.36669399","TLE_LINE1":"1 40218U 93036BUX 21269.55991391  .00000285  00000-0  10547-3 0  9993","TLE_LINE2":"2 40218  74.0338 205.2011 0018888 303.4576  56.4771 14.36669399367422"},{"OBJECT_ID":"1993-036BUZ","OBJECT_NAME":"COSMOS 2251 DEB","NORAD_CAT_ID":"40220","OBJECT_TYPE":"DEBRIS","PERIOD":"98.019","INCLINATION":"74.0240","ECCENTRICITY":"0.00131920","MEAN_MOTION":"14.69105453","TLE_LINE1":"1 40220U 93036BUZ 21272.43472454  .00004880  00000-0  83404-3 0  9998","TLE_LINE2":"2 40220  74.0240 353.6534 0013192  44.0812 336.0004 14.69105453517367"},{"OBJECT_ID":"1993-036BVA","OBJECT_NAME":"COSMOS 2251 DEB","NORAD_CAT_ID":"40221","OBJECT_TYPE":"DEBRIS","PERIOD":"97.948","INCLINATION":"73.9030","ECCENTRICITY":"0.01799840","MEAN_MOTION":"14.70162970","TLE_LINE1":"1 40221U 93036BVA 21272.33225788  .00008836  00000-0  11453-2 0  9993","TLE_LINE2":"2 40221  73.9030 256.5889 0179984 328.8620  97.3887 14.70162970534015"},{"OBJECT_ID":"1993-036BVC","OBJECT_NAME":"COSMOS 2251 DEB","NORAD_CAT_ID":"40223","OBJECT_TYPE":"DEBRIS","PERIOD":"99.716","INCLINATION":"73.9657","ECCENTRICITY":"0.00410510","MEAN_MOTION":"14.44095482","TLE_LINE1":"1 40223U 93036BVC 21271.13941189  .00001623  00000-0  47700-3 0  9994","TLE_LINE2":"2 40223  73.9657 160.2902 0041051 307.1929 205.4736 14.44095482369345"},{"OBJECT_ID":"1993-036BVD","OBJECT_NAME":"COSMOS 2251 DEB","NORAD_CAT_ID":"40224","OBJECT_TYPE":"DEBRIS","PERIOD":"98.699","INCLINATION":"73.9973","ECCENTRICITY":"0.01440350","MEAN_MOTION":"14.58974674","TLE_LINE1":"1 40224U 93036BVD 21271.44367976  .00001685  00000-0  31735-3 0  9994","TLE_LINE2":"2 40224  73.9973 336.1588 0144035 293.0716  78.6327 14.58974674483622"},{"OBJECT_ID":"1993-036BVE","OBJECT_NAME":"COSMOS 2251 DEB","NORAD_CAT_ID":"40225","OBJECT_TYPE":"DEBRIS","PERIOD":"98.691","INCLINATION":"74.0484","ECCENTRICITY":"0.00120610","MEAN_MOTION":"14.59101552","TLE_LINE1":"1 40225U 93036BVE 21266.01869303  .00001427  00000-0  30915-3 0  9996","TLE_LINE2":"2 40225  74.0484  20.6031 0012061 126.1943 358.0729 14.59101552372201"},{"OBJECT_ID":"1993-036BVF","OBJECT_NAME":"COSMOS 2251 DEB","NORAD_CAT_ID":"40226","OBJECT_TYPE":"DEBRIS","PERIOD":"95.960","INCLINATION":"74.0699","ECCENTRICITY":"0.00447870","MEAN_MOTION":"15.00619107","TLE_LINE1":"1 40226U 93036BVF 21269.25164531  .00013752  00000-0  10660-2 0  9995","TLE_LINE2":"2 40226  74.0699 103.6397 0044787 114.1955   2.6164 15.00619107381816"},{"OBJECT_ID":"1993-036BVG","OBJECT_NAME":"COSMOS 2251 DEB","NORAD_CAT_ID":"40227","OBJECT_TYPE":"DEBRIS","PERIOD":"95.929","INCLINATION":"74.0111","ECCENTRICITY":"0.00078940","MEAN_MOTION":"15.01115911","TLE_LINE1":"1 40227U 93036BVG 21271.71574516  .00020683  00000-0  16122-2 0  9998","TLE_LINE2":"2 40227  74.0111  71.2727 0007894 243.0603 116.9778 15.01115911497018"},{"OBJECT_ID":"1993-036BVH","OBJECT_NAME":"COSMOS 2251 DEB","NORAD_CAT_ID":"40228","OBJECT_TYPE":"DEBRIS","PERIOD":"100.223","INCLINATION":"74.0574","ECCENTRICITY":"0.00263750","MEAN_MOTION":"14.36802455","TLE_LINE1":"1 40228U 93036BVH 21271.09373397  .00000250  00000-0  93074-4 0  9995","TLE_LINE2":"2 40228  74.0574 209.3069 0026375 295.2925  77.3590 14.36802455368265"},{"OBJECT_ID":"1993-036BVK","OBJECT_NAME":"COSMOS 2251 DEB","NORAD_CAT_ID":"40230","OBJECT_TYPE":"DEBRIS","PERIOD":"100.078","INCLINATION":"74.0484","ECCENTRICITY":"0.00233660","MEAN_MOTION":"14.38882916","TLE_LINE1":"1 40230U 93036BVK 21271.54917199  .00000424  00000-0  14593-3 0  9993","TLE_LINE2":"2 40230  74.0484 196.7487 0023366 275.4943 258.4337 14.38882916368159"},{"OBJECT_ID":"1993-036BVL","OBJECT_NAME":"COSMOS 2251 DEB","NORAD_CAT_ID":"40231","OBJECT_TYPE":"DEBRIS","PERIOD":"96.358","INCLINATION":"74.0115","ECCENTRICITY":"0.00549240","MEAN_MOTION":"14.94431334","TLE_LINE1":"1 40231U 93036BVL 21271.52871716  .00005471  00000-0  49591-3 0  9999","TLE_LINE2":"2 40231  74.0115 338.4907 0054924 107.7514 252.9675 14.94431334381849"},{"OBJECT_ID":"1993-036BVM","OBJECT_NAME":"COSMOS 2251 DEB","NORAD_CAT_ID":"40232","OBJECT_TYPE":"DEBRIS","PERIOD":"97.709","INCLINATION":"74.1279","ECCENTRICITY":"0.00349420","MEAN_MOTION":"14.73767654","TLE_LINE1":"1 40232U 93036BVM 21271.78371442  .00003911  00000-0  59711-3 0  9991","TLE_LINE2":"2 40232  74.1279 281.1192 0034942 279.9629 254.8725 14.73767654530183"},{"OBJECT_ID":"1993-036BVN","OBJECT_NAME":"COSMOS 2251 DEB","NORAD_CAT_ID":"40233","OBJECT_TYPE":"DEBRIS","PERIOD":"99.849","INCLINATION":"73.9446","ECCENTRICITY":"0.00634900","MEAN_MOTION":"14.42176227","TLE_LINE1":"1 40233U 93036BVN 21272.27001723  .00000738  00000-0  22714-3 0  9996","TLE_LINE2":"2 40233  73.9446 114.2300 0063490 171.4007 188.8253 14.42176227534441"},{"OBJECT_ID":"1993-036BVQ","OBJECT_NAME":"COSMOS 2251 DEB","NORAD_CAT_ID":"40235","OBJECT_TYPE":"DEBRIS","PERIOD":"99.564","INCLINATION":"74.0280","ECCENTRICITY":"0.00178910","MEAN_MOTION":"14.46300668","TLE_LINE1":"1 40235U 93036BVQ 21265.05462424  .00000508  00000-0  14890-3 0  9996","TLE_LINE2":"2 40235  74.0280 126.3807 0017891 247.5227 265.7504 14.46300668369363"},{"OBJECT_ID":"1993-036BVR","OBJECT_NAME":"COSMOS 2251 DEB","NORAD_CAT_ID":"40236","OBJECT_TYPE":"DEBRIS","PERIOD":"109.087","INCLINATION":"73.5425","ECCENTRICITY":"0.05526270","MEAN_MOTION":"13.20044161","TLE_LINE1":"1 40236U 93036BVR 21268.72240309  .00000109  00000-0  14314-3 0  9998","TLE_LINE2":"2 40236  73.5425  38.0638 0552627  58.8106 306.5946 13.20044161332863"},{"OBJECT_ID":"1993-036BVS","OBJECT_NAME":"COSMOS 2251 DEB","NORAD_CAT_ID":"40237","OBJECT_TYPE":"DEBRIS","PERIOD":"99.396","INCLINATION":"74.0454","ECCENTRICITY":"0.00129840","MEAN_MOTION":"14.48753341","TLE_LINE1":"1 40237U 93036BVS 21270.33633015  .00001491  00000-0  40184-3 0  9998","TLE_LINE2":"2 40237  74.0454 119.1802 0012984 167.4064   7.1312 14.48753341370145"},{"OBJECT_ID":"1993-036BVT","OBJECT_NAME":"COSMOS 2251 DEB","NORAD_CAT_ID":"40238","OBJECT_TYPE":"DEBRIS","PERIOD":"109.219","INCLINATION":"73.9922","ECCENTRICITY":"0.05734820","MEAN_MOTION":"13.18454383","TLE_LINE1":"1 40238U 93036BVT 21272.30484202  .00000800  00000-0  88333-3 0  9991","TLE_LINE2":"2 40238  73.9922 245.7857 0573482 151.9811 211.3451 13.18454383526037"},{"OBJECT_ID":"1993-036BVU","OBJECT_NAME":"COSMOS 2251 DEB","NORAD_CAT_ID":"40239","OBJECT_TYPE":"DEBRIS","PERIOD":"98.988","INCLINATION":"74.0335","ECCENTRICITY":"0.00949660","MEAN_MOTION":"14.54725646","TLE_LINE1":"1 40239U 93036BVU 21269.54606749  .00000265  00000-0  64929-4 0  9997","TLE_LINE2":"2 40239  74.0335 320.5942 0094966  99.4128 330.7328 14.54725646372006"},{"OBJECT_ID":"1994-029AGJ","OBJECT_NAME":"PEGASUS DEB","NORAD_CAT_ID":"40242","OBJECT_TYPE":"DEBRIS","PERIOD":"102.618","INCLINATION":"81.8729","ECCENTRICITY":"0.04296100","MEAN_MOTION":"14.03264087","TLE_LINE1":"1 40242U 94029AGJ 21271.18583302  .00002349  00000-0  65491-3 0  9995","TLE_LINE2":"2 40242  81.8729  81.3916 0429610 209.7551 147.8557 14.03264087358758"},{"OBJECT_ID":"1994-029AGK","OBJECT_NAME":"PEGASUS DEB","NORAD_CAT_ID":"40243","OBJECT_TYPE":"DEBRIS","PERIOD":"101.251","INCLINATION":"81.9499","ECCENTRICITY":"0.03796530","MEAN_MOTION":"14.22202109","TLE_LINE1":"1 40243U 94029AGK 21271.20296687  .00003590  00000-0  76404-3 0  9991","TLE_LINE2":"2 40243  81.9499 245.0834 0379653  62.5884 301.3377 14.22202109362397"},{"OBJECT_ID":"1997-082J","OBJECT_NAME":"IRIDIUM 47 DEB","NORAD_CAT_ID":"40249","OBJECT_TYPE":"DEBRIS","PERIOD":"100.261","INCLINATION":"86.3919","ECCENTRICITY":"0.00022440","MEAN_MOTION":"14.36250283","TLE_LINE1":"1 40249U 97082J   21272.11646956  .00000309  00000-0  99085-4 0  9994","TLE_LINE2":"2 40249  86.3919 317.9452 0002244  73.6127 286.5316 14.36250283381845"}]